{"type": "FeatureCollection", "features": [{"type": "Feature", "properties": {"candidate_id": 0, "classification": "FP", "u": "4580163090", "v": "107816", "length": 7.810762596934277}, "geometry": {"type": "LineString", "coordinates": [[-0.1331572, 51.5079749], [-0.1332211, 51.507917]]}}, {"type": "Feature", "properties": {"candidate_id": 1, "classification": "FP", "u": "26699565", "v": "4356572322", "length": 26.688796230989123}, "geometry": {"type": "LineString", "coordinates": [[-0.1265376, 51.5158691], [-0.1261893, 51.515766]]}}, {"type": "Feature", "properties": {"candidate_id": 2, "classification": "FP", "u": "7684041426", "v": "7684041427", "length": 3.8402804548697453}, "geometry": {"type": "LineString", "coordinates": [[-0.1186532, 51.5188561], [-0.1186294, 51.5188249]]}}, {"type": "Feature", "properties": {"candidate_id": 4, "classification": "FP", "u": "6193915356", "v": "266325462", "length": 37.92772524948547}, "geometry": {"type": "LineString", "coordinates": [[-0.1101879, 51.503787], [-0.1103682, 51.5041091]]}}, {"type": "Feature", "properties": {"candidate_id": 5, "classification": "FP", "u": "107800", "v": "107799", "length": 9.04423755395719}, "geometry": {"type": "LineString", "coordinates": [[-0.1321586, 51.5102942], [-0.1322859, 51.5102758]]}}, {"type": "Feature", "properties": {"candidate_id": 8, "classification": "FP", "u": "7840392479", "v": "25509686", "length": 26.615606724902236}, "geometry": {"type": "LineString", "coordinates": [[-0.1122767, 51.5007601], [-0.1125234, 51.5009437]]}}, {"type": "Feature", "properties": {"candidate_id": 9, "classification": "FP", "u": "25472045", "v": "11863146", "length": 36.2682571432688}, "geometry": {"type": "LineString", "coordinates": [[-0.132478, 51.5194266], [-0.1328971, 51.5192307]]}}, {"type": "Feature", "properties": {"candidate_id": 11, "classification": "FP", "u": "107751", "v": "4084403506", "length": 28.789908369501596}, "geometry": {"type": "LineString", "coordinates": [[-0.1242336, 51.5009376], [-0.1238182, 51.5009246]]}}, {"type": "Feature", "properties": {"candidate_id": 12, "classification": "FP", "u": "109836", "v": "25471086", "length": 28.539534120052426}, "geometry": {"type": "LineString", "coordinates": [[-0.1211916, 51.5126513], [-0.1208676, 51.5128101]]}}, {"type": "Feature", "properties": {"candidate_id": 13, "classification": "FP", "u": "25470697", "v": "534993869", "length": 28.236044650048903}, "geometry": {"type": "LineString", "coordinates": [[-0.12192, 51.5162435], [-0.1216119, 51.51641]]}}, {"type": "Feature", "properties": {"candidate_id": 15, "classification": "FP", "u": "4084403506", "v": "107751", "length": 28.789908369501596}, "geometry": {"type": "LineString", "coordinates": [[-0.1238182, 51.5009246], [-0.1242336, 51.5009376]]}}, {"type": "Feature", "properties": {"candidate_id": 16, "classification": "FP", "u": "7638981103", "v": "2058516819", "length": 17.159974835146723}, "geometry": {"type": "LineString", "coordinates": [[-0.1292897, 51.5064816], [-0.1294936, 51.5063938]]}}, {"type": "Feature", "properties": {"candidate_id": 19, "classification": "FP", "u": "7684041427", "v": "7684041426", "length": 3.8402804548697453}, "geometry": {"type": "LineString", "coordinates": [[-0.1186294, 51.5188249], [-0.1186532, 51.5188561]]}}, {"type": "Feature", "properties": {"candidate_id": 20, "classification": "FP", "u": "2058516819", "v": "7638981103", "length": 17.159974835146723}, "geometry": {"type": "LineString", "coordinates": [[-0.1294936, 51.5063938], [-0.1292897, 51.5064816]]}}, {"type": "Feature", "properties": {"candidate_id": 22, "classification": "FP", "u": "6940326498", "v": "6940326497", "length": 10.691053143773171}, "geometry": {"type": "LineString", "coordinates": [[-0.124464, 51.516286], [-0.1245745, 51.5162188]]}}, {"type": "Feature", "properties": {"candidate_id": 23, "classification": "FP", "u": "5034506700", "v": "1239525705", "length": 7.783270425156547}, "geometry": {"type": "LineString", "coordinates": [[-0.1282618, 51.5069941], [-0.1281776, 51.5069477]]}}, {"type": "Feature", "properties": {"candidate_id": 24, "classification": "FP", "u": "11544696", "v": "7684041427", "length": 19.048941292105606}, "geometry": {"type": "LineString", "coordinates": [[-0.118748, 51.5189795], [-0.1186294, 51.5188249]]}}, {"type": "Feature", "properties": {"candidate_id": 27, "classification": "FP", "u": "25497910", "v": "255747713", "length": 20.07376054789423}, "geometry": {"type": "LineString", "coordinates": [[-0.1170921, 51.5143802], [-0.116903, 51.5145171]]}}, {"type": "Feature", "properties": {"candidate_id": 30, "classification": "FP", "u": "1106056850", "v": "1614926285", "length": 27.543357229440502}, "geometry": {"type": "LineString", "coordinates": [[-0.1191994, 51.5112918], [-0.1194209, 51.5114976]]}}]}