{"type": "FeatureCollection", "features": [{"type": "Feature", "properties": {"u": "14791190", "v": "5630569824", "edge_id": 0}, "geometry": {"type": "LineString", "coordinates": [[-0.1306738, 51.5176222], [-0.1308223, 51.5175577]]}}, {"type": "Feature", "properties": {"u": "5630569824", "v": "14791190", "edge_id": 0}, "geometry": {"type": "LineString", "coordinates": [[-0.1308223, 51.5175577], [-0.1306738, 51.5176222]]}}, {"type": "Feature", "properties": {"u": "9475518", "v": "351788581", "edge_id": 0}, "geometry": {"type": "LineString", "coordinates": [[-0.1200753, 51.5137124], [-0.1202131, 51.5137649], [-0.1205272, 51.5138928], [-0.1209393, 51.5140442], [-0.1216522, 51.5143692], [-0.121917, 51.5144974], [-0.122037, 51.5145647]]}}, {"type": "Feature", "properties": {"u": "25475478", "v": "25473556", "edge_id": 0}, "geometry": {"type": "LineString", "coordinates": [[-0.1365231, 51.5127736], [-0.1369615, 51.5126275]]}}, {"type": "Feature", "properties": {"u": "2525878187", "v": "740384613", "edge_id": 0}, "geometry": {"type": "LineString", "coordinates": [[-0.1266241, 51.501032], [-0.1265315, 51.5009958], [-0.1265022, 51.500992], [-0.1264043, 51.5009795], [-0.1263011, 51.5009634], [-0.1261451, 51.5009303]]}}, {"type": "Feature", "properties": {"u": "25507026", "v": "4084403506", "edge_id": 0}, "geometry": {"type": "LineString", "coordinates": [[-0.1240184, 51.5009285], [-0.1239559, 51.5009276], [-0.1238182, 51.5009246]]}}, {"type": "Feature", "properties": {"u": "4084403506", "v": "25507026", "edge_id": 0}, "geometry": {"type": "LineString", "coordinates": [[-0.1238182, 51.5009246], [-0.1239559, 51.5009276], [-0.1240184, 51.5009285]]}}, {"type": "Feature", "properties": {"u": "2214979349", "v": "6914164836", "edge_id": 0}, "geometry": {"type": "LineString", "coordinates": [[-0.1372937, 51.5053716], [-0.1372938, 51.5053301], [-0.1373165, 51.5053045], [-0.1373473, 51.5052805], [-0.1374366, 51.505246]]}}, {"type": "Feature", "properties": {"u": "14727254", "v": "25470835", "edge_id": 0}, "geometry": {"type": "LineString", "coordinates": [[-0.1243933, 51.5184879], [-0.1242077, 51.5183139]]}}, {"type": "Feature", "properties": {"u": "107799", "v": "107800", "edge_id": 0}, "geometry": {"type": "LineString", "coordinates": [[-0.1322859, 51.5102758], [-0.1321586, 51.5102942]]}}, {"type": "Feature", "properties": {"u": "9512926", "v": "25502541", "edge_id": 0}, "geometry": {"type": "LineString", "coordinates": [[-0.1344381, 51.5140939], [-0.1347984, 51.513994]]}}, {"type": "Feature", "properties": {"u": "107737", "v": "6277683849", "edge_id": 0}, "geometry": {"type": "LineString", "coordinates": [[-0.1131332, 51.5046433], [-0.1130883, 51.504591], [-0.1130628, 51.5045535], [-0.1130316, 51.5045144], [-0.1130085, 51.504491], [-0.1129755, 51.504464], [-0.1129135, 51.5044247]]}}, {"type": "Feature", "properties": {"u": "9512922", "v": "107774", "edge_id": 0}, "geometry": {"type": "LineString", "coordinates": [[-0.1297575, 51.5081563], [-0.1295138, 51.508235], [-0.1294722, 51.5082486], [-0.1293015, 51.5082793], [-0.1292486, 51.5082856], [-0.1291963, 51.5082872], [-0.1291489, 51.5082846], [-0.1291272, 51.5082822], [-0.1291057, 51.508278], [-0.1290843, 51.5082726], [-0.1290613, 51.5082635], [-0.1290487, 51.5082568], [-0.129034, 51.5082455], [-0.1290212, 51.5082325], [-0.129008, 51.508217], [-0.1289698, 51.5081562], [-0.1287627, 51.5076692], [-0.1287491, 51.5076369], [-0.1287367, 51.5076106], [-0.1287279, 51.5075924], [-0.1287105, 51.5075749], [-0.1286917, 51.5075623], [-0.1286555, 51.5075481], [-0.1286274, 51.5075423], [-0.1286019, 51.5075373], [-0.1285442, 51.5075248], [-0.1284932, 51.5075189], [-0.1284168, 51.5075148], [-0.1283026, 51.507512], [-0.1282287, 51.5075102], [-0.128162, 51.5075139], [-0.1280923, 51.5075198], [-0.1278265, 51.5075453]]}}, {"type": "Feature", "properties": {"u": "25504191", "v": "1239525705", "edge_id": 0}, "geometry": {"type": "LineString", "coordinates": [[-0.1277649, 51.5071532], [-0.1278787, 51.507104], [-0.1279399, 51.5070791], [-0.128025, 51.5070338], [-0.1281008, 51.5069902], [-0.1281776, 51.5069477]]}}, {"type": "Feature", "properties": {"u": "21704021", "v": "21990641", "edge_id": 0}, "geometry": {"type": "LineString", "coordinates": [[-0.1202961, 51.5145776], [-0.1195046, 51.5144976], [-0.1193596, 51.5144973], [-0.1192135, 51.5145602]]}}, {"type": "Feature", "properties": {"u": "21990641", "v": "21704021", "edge_id": 0}, "geometry": {"type": "LineString", "coordinates": [[-0.1192135, 51.5145602], [-0.1193596, 51.5144973], [-0.1195046, 51.5144976], [-0.1202961, 51.5145776]]}}, {"type": "Feature", "properties": {"u": "18495598", "v": "338501923", "edge_id": 0}, "geometry": {"type": "LineString", "coordinates": [[-0.1155474, 51.5190466], [-0.1157954, 51.5190169], [-0.1158486, 51.5190108], [-0.1161693, 51.5189738], [-0.1168667, 51.5188792]]}}, {"type": "Feature", "properties": {"u": "338501923", "v": "18495598", "edge_id": 0}, "geometry": {"type": "LineString", "coordinates": [[-0.1168667, 51.5188792], [-0.1161693, 51.5189738], [-0.1158486, 51.5190108], [-0.1157954, 51.5190169], [-0.1155474, 51.5190466]]}}, {"type": "Feature", "properties": {"u": "26652117", "v": "26652119", "edge_id": 0}, "geometry": {"type": "LineString", "coordinates": [[-0.1370989, 51.5089915], [-0.1371491, 51.5090514], [-0.1374329, 51.509393]]}}, {"type": "Feature", "properties": {"u": "26652119", "v": "26652117", "edge_id": 0}, "geometry": {"type": "LineString", "coordinates": [[-0.1374329, 51.509393], [-0.1371491, 51.5090514], [-0.1370989, 51.5089915]]}}, {"type": "Feature", "properties": {"u": "255578", "v": "496812960", "edge_id": 0}, "geometry": {"type": "LineString", "coordinates": [[-0.1353318, 51.5171097], [-0.1359039, 51.5170133], [-0.1365059, 51.5169098]]}}, {"type": "Feature", "properties": {"u": "496812960", "v": "255578", "edge_id": 0}, "geometry": {"type": "LineString", "coordinates": [[-0.1365059, 51.5169098], [-0.1359039, 51.5170133], [-0.1353318, 51.5171097]]}}, {"type": "Feature", "properties": {"u": "1678452813", "v": "1678452811", "edge_id": 0}, "geometry": {"type": "LineString", "coordinates": [[-0.1269215, 51.5137274], [-0.1269575, 51.5137083]]}}, {"type": "Feature", "properties": {"u": "4973447303", "v": "4973447307", "edge_id": 0}, "geometry": {"type": "LineString", "coordinates": [[-0.1169459, 51.5017548], [-0.1169132, 51.5016988], [-0.1169523, 51.5016055], [-0.1169856, 51.5015578], [-0.1170456, 51.5015249]]}}, {"type": "Feature", "properties": {"u": "4973447307", "v": "4973447303", "edge_id": 0}, "geometry": {"type": "LineString", "coordinates": [[-0.1170456, 51.5015249], [-0.1169856, 51.5015578], [-0.1169523, 51.5016055], [-0.1169132, 51.5016988], [-0.1169459, 51.5017548]]}}, {"type": "Feature", "properties": {"u": "1106056866", "v": "1106056846", "edge_id": 0}, "geometry": {"type": "LineString", "coordinates": [[-0.1226605, 51.5100094], [-0.1225358, 51.5100652], [-0.1221404, 51.5102319], [-0.1219193, 51.5103189], [-0.1217815, 51.5103773], [-0.1215798, 51.5104584], [-0.1215012, 51.5104881], [-0.1211895, 51.5106078], [-0.1210919, 51.5106453]]}}, {"type": "Feature", "properties": {"u": "25497910", "v": "255747733", "edge_id": 0}, "geometry": {"type": "LineString", "coordinates": [[-0.1170921, 51.5143802], [-0.116966, 51.5144729]]}}, {"type": "Feature", "properties": {"u": "1645813888", "v": "1139318692", "edge_id": 0}, "geometry": {"type": "LineString", "coordinates": [[-0.1225878, 51.5062651], [-0.1226174, 51.5063233], [-0.1226223, 51.5063633], [-0.1226267, 51.5063997], [-0.1226462, 51.5064402], [-0.1226632, 51.5064718], [-0.1226846, 51.5065108]]}}, {"type": "Feature", "properties": {"u": "2725915874", "v": "2725915891", "edge_id": 0}, "geometry": {"type": "LineString", "coordinates": [[-0.1233767, 51.506652], [-0.123311, 51.506723]]}}, {"type": "Feature", "properties": {"u": "256794571", "v": "256794570", "edge_id": 0}, "geometry": {"type": "LineString", "coordinates": [[-0.1274117, 51.5072493], [-0.1274606, 51.5072201], [-0.1275044, 51.5071979], [-0.1275661, 51.507179], [-0.1276448, 51.5071627], [-0.1277314, 51.5071532]]}}, {"type": "Feature", "properties": {"u": "107751", "v": "25507026", "edge_id": 0}, "geometry": {"type": "LineString", "coordinates": [[-0.1242336, 51.5009376], [-0.1240184, 51.5009285]]}}, {"type": "Feature", "properties": {"u": "25507026", "v": "107751", "edge_id": 0}, "geometry": {"type": "LineString", "coordinates": [[-0.1240184, 51.5009285], [-0.1242336, 51.5009376]]}}, {"type": "Feature", "properties": {"u": "3247619628", "v": "3247619689", "edge_id": 0}, "geometry": {"type": "LineString", "coordinates": [[-0.1151398, 51.5003199], [-0.115253, 51.5003887], [-0.1153371, 51.5004351], [-0.1154252, 51.5004798], [-0.1155403, 51.5005382], [-0.1156899, 51.5006095], [-0.1157362, 51.500626]]}}, {"type": "Feature", "properties": {"u": "282569744", "v": "1106056850", "edge_id": 0}, "geometry": {"type": "LineString", "coordinates": [[-0.1184755, 51.5116372], [-0.1185631, 51.5115688], [-0.1186255, 51.5115454], [-0.1187229, 51.5115088], [-0.1188336, 51.5114735], [-0.1189297, 51.5114364], [-0.1190128, 51.5113934], [-0.119048, 51.5113778], [-0.119105, 51.5113458], [-0.1191994, 51.5112918]]}}, {"type": "Feature", "properties": {"u": "33141178", "v": "6863550501", "edge_id": 0}, "geometry": {"type": "LineString", "coordinates": [[-0.1110544, 51.5138168], [-0.1111532, 51.5138022], [-0.1112258, 51.5137912], [-0.1113003, 51.5137797], [-0.1115362, 51.5137395], [-0.1115864, 51.5137308], [-0.1116247, 51.5137245], [-0.1118185, 51.5136972], [-0.1118241, 51.5136964]]}}, {"type": "Feature", "properties": {"u": "6863550501", "v": "33141178", "edge_id": 0}, "geometry": {"type": "LineString", "coordinates": [[-0.1118241, 51.5136964], [-0.1118185, 51.5136972], [-0.1116247, 51.5137245], [-0.1115864, 51.5137308], [-0.1115362, 51.5137395], [-0.1113003, 51.5137797], [-0.1112258, 51.5137912], [-0.1111532, 51.5138022], [-0.1110544, 51.5138168]]}}, {"type": "Feature", "properties": {"u": "9512937", "v": "9512939", "edge_id": 0}, "geometry": {"type": "LineString", "coordinates": [[-0.1311835, 51.5132242], [-0.1304698, 51.5134797]]}}, {"type": "Feature", "properties": {"u": "26591530", "v": "26591535", "edge_id": 0}, "geometry": {"type": "LineString", "coordinates": [[-0.1392821, 51.5065049], [-0.1394174, 51.5066235]]}}, {"type": "Feature", "properties": {"u": "26591535", "v": "26591530", "edge_id": 0}, "geometry": {"type": "LineString", "coordinates": [[-0.1394174, 51.5066235], [-0.1392821, 51.5065049]]}}, {"type": "Feature", "properties": {"u": "21665713", "v": "9512917", "edge_id": 0}, "geometry": {"type": "LineString", "coordinates": [[-0.1300977, 51.5099686], [-0.1304207, 51.5099344], [-0.1309554, 51.5098405], [-0.131028, 51.5098278]]}}, {"type": "Feature", "properties": {"u": "9512917", "v": "21665713", "edge_id": 0}, "geometry": {"type": "LineString", "coordinates": [[-0.131028, 51.5098278], [-0.1309554, 51.5098405], [-0.1304207, 51.5099344], [-0.1300977, 51.5099686]]}}, {"type": "Feature", "properties": {"u": "25472769", "v": "281455009", "edge_id": 0}, "geometry": {"type": "LineString", "coordinates": [[-0.1232071, 51.5172898], [-0.1235785, 51.51725], [-0.123938, 51.5172125], [-0.1247917, 51.517133], [-0.1248595, 51.5171234], [-0.1249763, 51.5171097]]}}, {"type": "Feature", "properties": {"u": "107714", "v": "107735", "edge_id": 0}, "geometry": {"type": "LineString", "coordinates": [[-0.1157884, 51.512416], [-0.1159649, 51.5123441], [-0.1160159, 51.5123273], [-0.1164972, 51.5121453], [-0.1168548, 51.5120269], [-0.1170831, 51.5119693], [-0.1173289, 51.5119122], [-0.1174755, 51.5118721], [-0.1175424, 51.5118538], [-0.1176878, 51.5118172], [-0.1178372, 51.5117725], [-0.1183386, 51.5116009], [-0.1184585, 51.511548], [-0.1185825, 51.5115006], [-0.1186846, 51.5114606], [-0.1188482, 51.5113938], [-0.1189303, 51.5113601], [-0.1189726, 51.5113354], [-0.1190098, 51.5113], [-0.1190318, 51.5112688], [-0.1190402, 51.5112374], [-0.1190309, 51.511216], [-0.1190087, 51.5111837], [-0.1188962, 51.5110339], [-0.1186861, 51.5107516], [-0.118542, 51.5105726], [-0.1184603, 51.5104712], [-0.1182987, 51.5102704], [-0.1182006, 51.5101364], [-0.1181431, 51.5100578], [-0.117617, 51.5094726], [-0.117503, 51.5093471], [-0.1172324, 51.5090358], [-0.1157181, 51.5073614], [-0.1154123, 51.5070225], [-0.1153598, 51.5069628], [-0.1152579, 51.5068471], [-0.1145702, 51.5060691], [-0.1144244, 51.5059015], [-0.1140774, 51.5055107], [-0.1140365, 51.5054695], [-0.1139598, 51.5053851], [-0.1138556, 51.505287], [-0.1137805, 51.5052245], [-0.113732, 51.5051928], [-0.1136766, 51.5051624], [-0.1136024, 51.5051346]]}}, {"type": "Feature", "properties": {"u": "256794589", "v": "2726834609", "edge_id": 0}, "geometry": {"type": "LineString", "coordinates": [[-0.127359, 51.5076821], [-0.1272357, 51.5077419], [-0.1271991, 51.5077595], [-0.1271657, 51.5077926], [-0.1271496, 51.5078235], [-0.1271452, 51.5078525], [-0.1271448, 51.5079085], [-0.1271466, 51.5079528], [-0.1272532, 51.5082525], [-0.1272868, 51.5083856]]}}, {"type": "Feature", "properties": {"u": "10616173", "v": "9476442", "edge_id": 0}, "geometry": {"type": "LineString", "coordinates": [[-0.1197585, 51.519158], [-0.1196093, 51.5189412], [-0.1194746, 51.5187578]]}}, {"type": "Feature", "properties": {"u": "1614978560", "v": "107828", "edge_id": 0}, "geometry": {"type": "LineString", "coordinates": [[-0.1235249, 51.5155845], [-0.1235559, 51.5156092], [-0.1237809, 51.5157927], [-0.1238188, 51.5158209], [-0.123993, 51.515941], [-0.1243258, 51.5161747], [-0.1243952, 51.5162258], [-0.1244352, 51.5162575]]}}, {"type": "Feature", "properties": {"u": "5768795651", "v": "6991089422", "edge_id": 0}, "geometry": {"type": "LineString", "coordinates": [[-0.1323039, 51.519658], [-0.1323662, 51.519666], [-0.1324842, 51.5197616], [-0.1324905, 51.5197939]]}}, {"type": "Feature", "properties": {"u": "6991089422", "v": "5768795651", "edge_id": 0}, "geometry": {"type": "LineString", "coordinates": [[-0.1324905, 51.5197939], [-0.1324842, 51.5197616], [-0.1323662, 51.519666], [-0.1323039, 51.519658]]}}, {"type": "Feature", "properties": {"u": "5932959891", "v": "25544115", "edge_id": 0}, "geometry": {"type": "LineString", "coordinates": [[-0.1271035, 51.5117883], [-0.1271059, 51.5117314], [-0.127108, 51.5117021], [-0.1271198, 51.5115959], [-0.12712, 51.5114789], [-0.1271201, 51.511404], [-0.1270375, 51.5110396], [-0.1270252, 51.5110034], [-0.1269811, 51.5108744], [-0.1269548, 51.5107974], [-0.126945, 51.5107424], [-0.1269163, 51.5106094], [-0.126911, 51.5102971], [-0.1269146, 51.5102204], [-0.1268893, 51.509702], [-0.1269241, 51.509507]]}}, {"type": "Feature", "properties": {"u": "25504199", "v": "25504193", "edge_id": 0}, "geometry": {"type": "LineString", "coordinates": [[-0.1254736, 51.5070488], [-0.1253816, 51.5071941], [-0.1253526, 51.5072353], [-0.1253792, 51.507288], [-0.1256632, 51.5074511], [-0.1257936, 51.5075259], [-0.1258899, 51.5075812]]}}, {"type": "Feature", "properties": {"u": "333650005", "v": "107317", "edge_id": 0}, "geometry": {"type": "LineString", "coordinates": [[-0.1371227, 51.5198216], [-0.1375632, 51.519645], [-0.1377132, 51.5195849]]}}, {"type": "Feature", "properties": {"u": "26699544", "v": "9512933", "edge_id": 0}, "geometry": {"type": "LineString", "coordinates": [[-0.1323185, 51.5134376], [-0.1325297, 51.5137376]]}}]}