{"type": "FeatureCollection", "features": [{"type": "Feature", "properties": {"candidate_id": 3, "classification": "TP", "u": "26591530", "v": "26591535", "length": 16.174170482961557}, "geometry": {"type": "LineString", "coordinates": [[-0.1392821, 51.5065049], [-0.1394174, 51.5066235]]}}, {"type": "Feature", "properties": {"candidate_id": 6, "classification": "TP", "u": "14727254", "v": "25470835", "length": 23.22202056734776}, "geometry": {"type": "LineString", "coordinates": [[-0.1243933, 51.5184879], [-0.1242077, 51.5183139]]}}, {"type": "Feature", "properties": {"candidate_id": 7, "classification": "TP", "u": "5630569824", "v": "14791190", "length": 12.530755771877118}, "geometry": {"type": "LineString", "coordinates": [[-0.1308223, 51.5175577], [-0.1306738, 51.5176222]]}}, {"type": "Feature", "properties": {"candidate_id": 10, "classification": "TP", "u": "107751", "v": "25507026", "length": 14.930268524053542}, "geometry": {"type": "LineString", "coordinates": [[-0.1242336, 51.5009376], [-0.1240184, 51.5009285]]}}, {"type": "Feature", "properties": {"candidate_id": 14, "classification": "TP", "u": "4084403506", "v": "25507026", "length": 13.864440029918498}, "geometry": {"type": "LineString", "coordinates": [[-0.1238182, 51.5009246], [-0.1240184, 51.5009285]]}}, {"type": "Feature", "properties": {"candidate_id": 17, "classification": "TP", "u": "107799", "v": "107800", "length": 9.04423755395719}, "geometry": {"type": "LineString", "coordinates": [[-0.1322859, 51.5102758], [-0.1321586, 51.5102942]]}}, {"type": "Feature", "properties": {"candidate_id": 18, "classification": "TP", "u": "26699544", "v": "9512933", "length": 36.41958814161658}, "geometry": {"type": "LineString", "coordinates": [[-0.1323185, 51.5134376], [-0.1325297, 51.5137376]]}}, {"type": "Feature", "properties": {"candidate_id": 21, "classification": "TP", "u": "14791190", "v": "5630569824", "length": 12.530755771877118}, "geometry": {"type": "LineString", "coordinates": [[-0.1306738, 51.5176222], [-0.1308223, 51.5175577]]}}, {"type": "Feature", "properties": {"candidate_id": 25, "classification": "TP", "u": "256794571", "v": "256794570", "length": 24.571520096759386}, "geometry": {"type": "LineString", "coordinates": [[-0.1274117, 51.5072493], [-0.1277314, 51.5071532]]}}, {"type": "Feature", "properties": {"candidate_id": 26, "classification": "TP", "u": "25497910", "v": "255747733", "length": 13.505262241494819}, "geometry": {"type": "LineString", "coordinates": [[-0.1170921, 51.5143802], [-0.116966, 51.5144729]]}}, {"type": "Feature", "properties": {"candidate_id": 28, "classification": "TP", "u": "26591535", "v": "26591530", "length": 16.174170482961557}, "geometry": {"type": "LineString", "coordinates": [[-0.1394174, 51.5066235], [-0.1392821, 51.5065049]]}}, {"type": "Feature", "properties": {"candidate_id": 29, "classification": "TP", "u": "2214979349", "v": "6914164836", "length": 17.113518783536453}, "geometry": {"type": "LineString", "coordinates": [[-0.1372937, 51.5053716], [-0.1374366, 51.505246]]}}]}